NORAD_CAT_ID,OBJECT_NAME,OBJECT_TYPE,EPOCH,MEAN_MOTION,ECCENTRICITY,INCLINATION,RA_OF_ASC_NODE,ARG_OF_PERICENTER,MEAN_ANOMALY,BSTAR,MEAN_MOTION_DOT,MEAN_MOTION_DDOT,TLE_LINE0,TLE_LINE1,TLE_LINE2,SEMIMAJOR_AXIS,PERIOD,APOGEE,PERIGEE,DECAYED
53417.0,STARLINK-4484,PAYLOAD,2023-12-31 13:36:56,15.0883964,0.000111,53.2166,101.5213,89.486,270.6259,-2.391e-06,-3.26e-06,0.0,0 STARLINK-4484,1 53417U 22097AF  23365.56732266 -.00000326  00000-0 -23910-5 0  9999,2 53417  53.2166 101.5213 0001110  89.4860 270.6259 15.08839640 77522,6917.881,95.438,540.514,538.979,0.0
53417.0,STARLINK-4484,PAYLOAD,2024-01-01 11:52:20,15.08838237,0.0001055,53.2167,97.3585,84.1522,275.959,3.2477e-05,2.29e-06,0.0,0 STARLINK-4484,1 53417U 22097AF  24001.49468419  .00000229  00000-0  32477-4 0  9992,2 53417  53.2167  97.3585 0001055  84.1522 275.9590 15.08838237 78126,6917.886,95.438,540.481,539.021,0.0
53417.0,STARLINK-4484,PAYLOAD,2024-01-01 15:03:06,15.08842693,0.0001076,53.2169,96.7635,81.0602,279.0512,6.4775e-05,7.43e-06,0.0,0 STARLINK-4484,1 53417U 22097AF  24001.62716033  .00000743  00000-0  64775-4 0  9992,2 53417  53.2169  96.7635 0001076  81.0602 279.0512 15.08842693 77685,6917.872,95.437,540.482,538.993,0.0
53417.0,STARLINK-4484,PAYLOAD,2024-01-02 11:43:07,15.08838222,0.0001336,53.2185,92.8947,70.8459,289.2677,4.5239e-05,4.32e-06,0.0,0 STARLINK-4484,1 53417U 22097AF  24002.48828648  .00000432  00000-0  45239-4 0  9992,2 53417  53.2185  92.8947 0001336  70.8459 289.2677 15.08838222 77814,6917.886,95.438,540.675,538.827,0.0
53417.0,STARLINK-4484,PAYLOAD,2024-01-02 13:18:30,15.08840139,0.0001418,53.2189,92.5973,63.2846,296.8291,6.0751e-05,6.79e-06,0.0,0 STARLINK-4484,1 53417U 22097AF  24002.55452513  .00000679  00000-0  60751-4 0  9993,2 53417  53.2189  92.5973 0001418  63.2846 296.8291 15.08840139 78289,6917.88,95.438,540.726,538.764,0.0
53417.0,STARLINK-4484,PAYLOAD,2024-01-02 14:53:53,15.08841529,0.0001338,53.219,92.3003,70.7103,289.4034,6.9455e-05,8.18e-06,0.0,0 STARLINK-4484,1 53417U 22097AF  24002.62076334  .00000818  00000-0  69455-4 0  9999,2 53417  53.2190  92.3003 0001338  70.7103 289.4034 15.08841529 78291,6917.876,95.437,540.666,538.815,0.0
53417.0,STARLINK-4484,PAYLOAD,2024-01-03 13:09:18,15.0884024,0.000135,53.2176,88.1405,65.2583,294.8549,1.0162e-05,-1.26e-06,0.0,0 STARLINK-4484,1 53417U 22097AF  24003.54812827 -.00000126  00000-0  10162-4 0  9990,2 53417  53.2176  88.1405 0001350  65.2583 294.8549 15.08840240 78435,6917.88,95.438,540.679,538.811,0.0
53417.0,STARLINK-4484,PAYLOAD,2024-01-04 13:00:05,15.08845775,0.0001311,53.2173,83.6803,72.6638,287.4498,2.1733e-05,5.8e-07,0.0,0 STARLINK-4484,1 53417U 22097AF  24004.54172468  .00000058  00000-0  21733-4 0  9990,2 53417  53.2173  83.6803 0001311  72.6638 287.4498 15.08845775 78589,6917.863,95.437,540.635,538.821,0.0
53417.0,STARLINK-4484,PAYLOAD,2024-01-04 14:35:27,15.08848603,0.0001254,53.2173,83.3823,76.7403,283.3729,4.2179e-05,3.84e-06,0.0,0 STARLINK-4484,1 53417U 22097AF  24004.60796168  .00000384  00000-0  42179-4 0  9995,2 53417  53.2173  83.3823 0001254  76.7403 283.3729 15.08848603 78135,6917.854,95.437,540.587,538.852,0.0
53417.0,STARLINK-4484,PAYLOAD,2024-01-05 11:15:29,15.08837823,0.0001245,53.217,79.5146,95.0055,265.1079,1.7499e-05,-9e-08,0.0,0 STARLINK-4484,1 53417U 22097AF  24005.46908911 -.00000009  00000-0  17499-4 0  9993,2 53417  53.2170  79.5146 0001245  95.0055 265.1079 15.08837823 78266,6917.887,95.438,540.613,538.891,0.0
53417.0,STARLINK-4484,PAYLOAD,2024-01-05 14:26:15,15.08841964,0.0001265,53.2168,78.9188,105.9937,254.1195,3.9119e-05,3.35e-06,0.0,0 STARLINK-4484,1 53417U 22097AF  24005.60156526  .00000335  00000-0  39119-4 0  9990,2 53417  53.2168  78.9188 0001265 105.9937 254.1195 15.08841964 78745,6917.874,95.437,540.614,538.864,0.0
53417.0,STARLINK-4484,PAYLOAD,2024-01-06 11:06:15,15.08846702,0.0001215,53.2167,75.0525,93.6352,266.4779,4.9107e-06,-2.1e-06,0.0,0 STARLINK-4484,1 53417U 22097AF  24006.46268382 -.00000210  00000-0  49107-5 0  9991,2 53417  53.2167  75.0525 0001215  93.6352 266.4779 15.08846702 78419,6917.86,95.437,540.565,538.884,0.0
53417.0,STARLINK-4484,PAYLOAD,2024-01-06 14:17:02,15.08846963,0.0001368,53.2177,74.4587,100.7624,259.3522,-6.5679e-06,-3.92e-06,0.0,0 STARLINK-4484,1 53417U 22097AF  24006.59516351 -.00000392  00000-0 -65679-5 0  9991,2 53417  53.2177  74.4587 0001368 100.7624 259.3522 15.08846963 78890,6917.859,95.437,540.67,538.778,0.0
53417.0,STARLINK-4484,PAYLOAD,2024-01-07 10:57:03,15.0884185,0.0001437,53.2178,70.5933,99.6329,260.4826,-2.0874e-05,-6.2e-06,0.0,0 STARLINK-4484,1 53417U 22097AF  24007.45628785 -.00000620  00000-0 -20874-4 0  9993,2 53417  53.2178  70.5933 0001437  99.6329 260.4826 15.08841850 78562,6917.875,95.437,540.734,538.746,0.0
53417.0,STARLINK-4484,PAYLOAD,2024-01-08 09:12:27,15.08841785,0.0001487,53.2178,66.4301,99.1472,260.9689,9.7139e-06,-1.33e-06,0.0,0 STARLINK-4484,1 53417U 22097AF  24008.38364732 -.00000133  00000-0  97139-5 0  9992,2 53417  53.2178  66.4301 0001487  99.1472 260.9689 15.08841785 79160,6917.875,95.437,540.769,538.711,0.0
53417.0,STARLINK-4484,PAYLOAD,2024-01-09 09:03:14,15.08836993,0.0001576,53.2187,61.9768,106.8836,253.2329,1.6165e-05,-3.1e-07,0.0,0 STARLINK-4484,1 53417U 22097AF  24009.37725197 -.00000031  00000-0  16165-4 0  9994,2 53417  53.2187  61.9768 0001576 106.8836 253.2329 15.08836993 78852,6917.89,95.438,540.845,538.664,0.0
53417.0,STARLINK-4484,PAYLOAD,2024-01-10 08:54:01,15.08838321,0.0001573,53.2184,57.514,105.066,255.0506,2.4043e-05,9.5e-07,0.0,0 STARLINK-4484,1 53417U 22097AF  24010.37085273  .00000095  00000-0  24043-4 0  9993,2 53417  53.2184  57.5140 0001573 105.0660 255.0506 15.08838321 79469,6917.886,95.438,540.839,538.662,0.0
53417.0,STARLINK-4484,PAYLOAD,2024-01-10 12:04:47,15.08840506,0.0001475,53.218,56.9134,84.0115,276.1045,3.9025e-05,3.33e-06,0.0,0 STARLINK-4484,1 53417U 22097AF  24010.50333150  .00000333  00000-0  39025-4 0  9999,2 53417  53.2180  56.9134 0001475  84.0115 276.1045 15.08840506 79025,6917.879,95.438,540.764,538.723,0.0
53417.0,STARLINK-4484,PAYLOAD,2024-01-11 10:20:11,15.08846397,0.0001526,53.2173,52.7575,81.0281,279.0883,0.00011271,1.507e-05,0.0,0 STARLINK-4484,1 53417U 22097AF  24011.43068674  .00001507  00000-0  11271-3 0  9994,2 53417  53.2173  52.7575 0001526  81.0281 279.0883 15.08846397 79620,6917.861,95.437,540.782,538.67,0.0
53417.0,STARLINK-4484,PAYLOAD,2024-01-12 02:14:03,15.08840343,0.0001451,53.2186,49.7827,92.7017,267.4142,-8.3154e-06,-4.2e-06,0.0,0 STARLINK-4484,1 53417U 22097AF  24012.09309432 -.00000420  00000-0 -83154-5 0  9993,2 53417  53.2186  49.7827 0001451  92.7017 267.4142 15.08840343 79267,6917.879,95.438,540.748,538.741,0.0
53417.0,STARLINK-4484,PAYLOAD,2024-01-12 08:35:36,15.08836123,0.0001584,53.2167,48.5924,76.3904,283.7265,7.0088e-06,-1.76e-06,0.0,0 STARLINK-4484,1 53417U 22097AF  24012.35805786 -.00000176  00000-0  70088-5 0  9994,2 53417  53.2167  48.5924 0001584  76.3904 283.7265 15.08836123 79764,6917.892,95.438,540.853,538.661,0.0
53417.0,STARLINK-4484,PAYLOAD,2024-01-13 08:26:23,15.08840521,0.0001616,53.2169,44.1322,84.0232,276.0944,-1.922e-06,-3.19e-06,0.0,0 STARLINK-4484,1 53417U 22097AF  24013.35165693 -.00000319  00000-0 -19220-5 0  9992,2 53417  53.2169  44.1322 0001616  84.0232 276.0944 15.08840521 79458,6917.879,95.438,540.862,538.626,0.0
53417.0,STARLINK-4484,PAYLOAD,2024-01-14 11:27:55,15.08844576,0.0001538,53.217,39.0738,99.7646,260.352,0.00012621,1.721e-05,0.0,0 STARLINK-4484,1 53417U 22097AF  24014.47773142  .00001721  00000-0  12621-3 0  9992,2 53417  53.2170  39.0738 0001538  99.7646 260.3520 15.08844576 79628,6917.866,95.437,540.795,538.667,0.0
53417.0,STARLINK-4484,PAYLOAD,2024-01-14 22:35:38,15.08832704,0.000163,53.2174,36.9881,115.001,245.1152,0.00014327,1.992e-05,0.0,0 STARLINK-4484,1 53417U 22097AF  24014.94141756  .00001992  00000-0  14327-3 0  9999,2 53417  53.2174  36.9881 0001630 115.0010 245.1152 15.08832704 79696,6917.903,95.438,540.895,538.64,0.0
53417.0,STARLINK-4484,PAYLOAD,2024-01-15 11:18:43,15.08845134,0.0001565,53.2171,34.6101,107.087,253.0294,5.0747e-05,5.2e-06,0.0,0 STARLINK-4484,1 53417U 22097AF  24015.47133418  .00000520  00000-0  50747-4 0  9997,2 53417  53.2171  34.6101 0001565 107.0870 253.0294 15.08845134 80233,6917.865,95.437,540.812,538.647,0.0
53417.0,STARLINK-4484,PAYLOAD,2024-01-15 22:26:25,15.08833273,0.0001719,53.2174,32.5251,126.0757,234.0395,-8.5968e-06,-4.25e-06,0.0,0 STARLINK-4484,1 53417U 22097AF  24015.93502296 -.00000425  00000-0 -85968-5 0  9992,2 53417  53.2174  32.5251 0001719 126.0757 234.0395 15.08833273 79842,6917.901,95.438,540.955,538.577,0.0
53417.0,STARLINK-4484,PAYLOAD,2024-01-17 01:27:59,15.08835867,0.0001396,53.2172,27.4696,106.7056,253.409,3.9301e-05,3.38e-06,0.0,0 STARLINK-4484,1 53417U 22097AF  24017.06110402  .00000338  00000-0  39301-4 0  9992,2 53417  53.2172  27.4696 0001396 106.7056 253.4090 15.08835867 80013,6917.893,95.438,540.724,538.792,0.0
53417.0,STARLINK-4484,PAYLOAD,2024-01-17 07:49:31,15.08840419,0.0001555,53.2182,26.2915,101.6957,258.421,7.568e-05,9.17e-06,0.0,0 STARLINK-4484,1 53417U 22097AF  24017.32606287  .00000917  00000-0  75680-4 0  9995,2 53417  53.2182  26.2915 0001555 101.6957 258.4210 15.08840419 80519,6917.879,95.438,540.82,538.668,0.0
53417.0,STARLINK-4484,PAYLOAD,2024-01-18 09:15:42,15.08838769,0.0001535,53.218,21.5309,98.8388,261.2778,0.00010204,1.336e-05,0.0,0 STARLINK-4484,1 53417U 22097AF  24018.38590547  .00001336  00000-0  10204-3 0  9999,2 53417  53.2180  21.5309 0001535  98.8388 261.2778 15.08838769 80218,6917.884,95.438,540.811,538.687,0.0
53417.0,STARLINK-4484,PAYLOAD,2024-01-18 23:34:10,15.08825063,0.00015,53.2188,18.8543,83.7043,276.412,0.00023874,3.512e-05,0.0,0 STARLINK-4484,1 53417U 22097AF  24018.98207018  .00003512  00000-0  23874-3 0  9998,2 53417  53.2188  18.8543 0001500  83.7043 276.4120 15.08825063 80300,6917.926,95.438,540.829,538.753,0.0
